[{"OBJECT_NAME":"STARLINK-5167","OBJECT_ID":"2022-136H","EPOCH":"2026-03-09T02:12:56.368512","MEAN_MOTION":15.08826452,"ECCENTRICITY":0.000138,"INCLINATION":53.2187,"RA_OF_ASC_NODE":346.8102,"ARG_OF_PERICENTER":80.856,"MEAN_ANOMALY":279.2588,"EPHEMERIS_TYPE":0,"CLASSIFICATION_TYPE":"U","NORAD_CAT_ID":54058,"ELEMENT_SET_NO":999,"REV_AT_EPOCH":18675,"BSTAR":-8.6490862e-5,"MEAN_MOTION_DOT":-1.664e-5,"MEAN_MOTION_DDOT":0},{"OBJECT_NAME":"THORAD AGENA D DEB","OBJECT_ID":"1969-082Z","EPOCH":"2026-03-09T07:18:45.871776","MEAN_MOTION":15.11837328,"ECCENTRICITY":0.00204275,"INCLINATION":70.0067,"RA_OF_ASC_NODE":36.7332,"ARG_OF_PERICENTER":221.6463,"MEAN_ANOMALY":138.3149,"EPHEMERIS_TYPE":0,"CLASSIFICATION_TYPE":"U","NORAD_CAT_ID":4157,"ELEMENT_SET_NO":999,"REV_AT_EPOCH":97934,"BSTAR":0.0014373482,"MEAN_MOTION_DOT":0.00024719,"MEAN_MOTION_DDOT":0}]
